start=new Date('2022-11-12T00:00:00.000Z').valueOf();
sats=[{"SITE":"AFETR","APOAPSIS":"541.052","ARG_OF_PERICENTER":"36.8832","OBJECT_ID":"2022-049L","OBJECT_TYPE":"PAYLOAD","REF_FRAME":"TEME","CLASSIFICATION_TYPE":"U","SEMIMAJOR_AXIS":"6917.922","MEAN_MOTION_DDOT":"0.0000000000000","EPOCH":"2022-11-11T19:46:30.867168","REV_AT_EPOCH":"2913","TLE_LINE2":"2 52461  53.2182  98.3691 0001829  36.8832 323.2286 15.08826417 29130","LAUNCH_DATE":"2022-05-06","MEAN_MOTION_DOT":"0.00000849","OBJECT_NAME":"STARLINK-3900","TLE_LINE1":"1 52461U 22049L   22315.82396837  .00000849  00000-0  71483-4 0  9992","MEAN_ELEMENT_THEORY":"SGP4","RCS_SIZE":"LARGE","ECCENTRICITY":"0.00018290","RA_OF_ASC_NODE":"98.3691","EPHEMERIS_TYPE":"0","CENTER_NAME":"EARTH","ELEMENT_SET_NO":"999","MEAN_ANOMALY":"323.2286","PERIOD":"95.438","COUNTRY_CODE":"US","INCLINATION":"53.2182","DECAY_DATE":null,"NORAD_CAT_ID":"52461","GP_ID":"217493127","FILE":"3651775","BSTAR":"0.00007148300000","PERIAPSIS":"538.522","TIME_SYSTEM":"UTC","MEAN_MOTION":"15.08826417"},{"SEMIMAJOR_AXIS":"6917.907","MEAN_MOTION_DDOT":"0.0000000000000","EPOCH":"2022-11-11T18:04:30.261792","REF_FRAME":"TEME","CLASSIFICATION_TYPE":"U","OBJECT_ID":"2022-049M","ARG_OF_PERICENTER":"49.4304","OBJECT_TYPE":"PAYLOAD","SITE":"AFETR","APOAPSIS":"540.967","LAUNCH_DATE":"2022-05-06","MEAN_MOTION_DOT":"0.00000886","TLE_LINE2":"2 52462  53.2168 108.6872 0001727  49.4304 310.6838 15.08831196 28987","REV_AT_EPOCH":"2898","ELEMENT_SET_NO":"999","MEAN_ANOMALY":"310.6838","PERIOD":"95.438","CENTER_NAME":"EARTH","EPHEMERIS_TYPE":"0","RCS_SIZE":"LARGE","ECCENTRICITY":"0.00017270","RA_OF_ASC_NODE":"108.6872","OBJECT_NAME":"STARLINK-3903","MEAN_ELEMENT_THEORY":"SGP4","TLE_LINE1":"1 52462U 22049M   22315.75312803  .00000886  00000-0  73770-4 0  9998","PERIAPSIS":"538.578","TIME_SYSTEM":"UTC","MEAN_MOTION":"15.08831196","BSTAR":"0.00007377000000","FILE":"3651775","NORAD_CAT_ID":"52462","GP_ID":"217493382","COUNTRY_CODE":"US","INCLINATION":"53.2168","DECAY_DATE":null},{"APOAPSIS":"541.022","SITE":"AFETR","OBJECT_TYPE":"PAYLOAD","OBJECT_ID":"2022-049N","ARG_OF_PERICENTER":"48.7609","CLASSIFICATION_TYPE":"U","REF_FRAME":"TEME","EPOCH":"2022-11-11T19:41:12.485760","MEAN_MOTION_DDOT":"0.0000000000000","SEMIMAJOR_AXIS":"6917.846","REV_AT_EPOCH":"2913","TLE_LINE2":"2 52463  53.2166  98.3828 0001895  48.7609 311.3546 15.08851333 29135","MEAN_MOTION_DOT":"0.00002636","LAUNCH_DATE":"2022-05-06","MEAN_ELEMENT_THEORY":"SGP4","TLE_LINE1":"1 52463U 22049N   22315.82028340  .00002636  00000-0  18360-3 0  9995","OBJECT_NAME":"STARLINK-3885","RA_OF_ASC_NODE":"98.3828","ECCENTRICITY":"0.00018950","RCS_SIZE":"LARGE","EPHEMERIS_TYPE":"0","CENTER_NAME":"EARTH","PERIOD":"95.437","MEAN_ANOMALY":"311.3546","ELEMENT_SET_NO":"999","INCLINATION":"53.2166","DECAY_DATE":null,"COUNTRY_CODE":"US","GP_ID":"217494100","NORAD_CAT_ID":"52463","FILE":"3651775","BSTAR":"0.00018360000000","MEAN_MOTION":"15.08851333","PERIAPSIS":"538.400","TIME_SYSTEM":"UTC"},{"APOAPSIS":"540.973","SITE":"AFETR","OBJECT_TYPE":"PAYLOAD","OBJECT_ID":"2022-049P","ARG_OF_PERICENTER":"54.4836","CLASSIFICATION_TYPE":"U","REF_FRAME":"TEME","EPOCH":"2022-11-11T18:09:46.969632","MEAN_MOTION_DDOT":"0.0000000000000","SEMIMAJOR_AXIS":"6917.879","REV_AT_EPOCH":"2898","TLE_LINE2":"2 52464  53.2170 108.6744 0001777  54.4836 305.6322 15.08840399 28988","MEAN_MOTION_DOT":"0.00002844","LAUNCH_DATE":"2022-05-06","MEAN_ELEMENT_THEORY":"SGP4","TLE_LINE1":"1 52464U 22049P   22315.75679363  .00002844  00000-0  19668-3 0  9998","OBJECT_NAME":"STARLINK-3904","RA_OF_ASC_NODE":"108.6744","ECCENTRICITY":"0.00017770","RCS_SIZE":"LARGE","CENTER_NAME":"EARTH","EPHEMERIS_TYPE":"0","PERIOD":"95.438","MEAN_ANOMALY":"305.6322","ELEMENT_SET_NO":"999","INCLINATION":"53.2170","DECAY_DATE":null,"COUNTRY_CODE":"US","GP_ID":"217492880","NORAD_CAT_ID":"52464","BSTAR":"0.00019668000000","FILE":"3651775","PERIAPSIS":"538.515","TIME_SYSTEM":"UTC","MEAN_MOTION":"15.08840399"},{"TLE_LINE1":"1 52465U 22049Q   22315.81660125  .00000645  00000-0  58629-4 0  9990","MEAN_ELEMENT_THEORY":"SGP4","OBJECT_NAME":"STARLINK-3863","RA_OF_ASC_NODE":"98.3991","ECCENTRICITY":"0.00019140","RCS_SIZE":"LARGE","EPHEMERIS_TYPE":"0","CENTER_NAME":"EARTH","PERIOD":"95.438","MEAN_ANOMALY":"313.1520","ELEMENT_SET_NO":"999","INCLINATION":"53.2188","DECAY_DATE":null,"COUNTRY_CODE":"US","GP_ID":"217493627","NORAD_CAT_ID":"52465","FILE":"3651775","BSTAR":"0.00005862900000","PERIAPSIS":"538.429","MEAN_MOTION":"15.08837411","TIME_SYSTEM":"UTC","APOAPSIS":"541.077","SITE":"AFETR","OBJECT_TYPE":"PAYLOAD","OBJECT_ID":"2022-049Q","ARG_OF_PERICENTER":"46.9632","CLASSIFICATION_TYPE":"U","REF_FRAME":"TEME","EPOCH":"2022-11-11T19:35:54.348000","MEAN_MOTION_DDOT":"0.0000000000000","SEMIMAJOR_AXIS":"6917.888","REV_AT_EPOCH":"2913","TLE_LINE2":"2 52465  53.2188  98.3991 0001914  46.9632 313.1520 15.08837411 29133","MEAN_MOTION_DOT":"0.00000645","LAUNCH_DATE":"2022-05-06"},{"TLE_LINE2":"2 52466  53.2173 108.4211 0001792  46.9230 313.1912 15.08832090 28990","REV_AT_EPOCH":"2899","LAUNCH_DATE":"2022-05-06","MEAN_MOTION_DOT":"0.00004979","OBJECT_TYPE":"PAYLOAD","ARG_OF_PERICENTER":"46.9230","OBJECT_ID":"2022-049R","SITE":"AFETR","APOAPSIS":"541.009","MEAN_MOTION_DDOT":"0.0000000000000","SEMIMAJOR_AXIS":"6917.905","EPOCH":"2022-11-11T19:29:18.529728","REF_FRAME":"TEME","CLASSIFICATION_TYPE":"U","GP_ID":"217493882","NORAD_CAT_ID":"52466","COUNTRY_CODE":"US","DECAY_DATE":null,"INCLINATION":"53.2173","PERIAPSIS":"538.530","TIME_SYSTEM":"UTC","MEAN_MOTION":"15.08832090","FILE":"3651775","BSTAR":"0.00033080000000","RCS_SIZE":"LARGE","RA_OF_ASC_NODE":"108.4211","ECCENTRICITY":"0.00017920","OBJECT_NAME":"STARLINK-3840","TLE_LINE1":"1 52466U 22049R   22315.81202002  .00004979  00000-0  33080-3 0  9994","MEAN_ELEMENT_THEORY":"SGP4","ELEMENT_SET_NO":"999","PERIOD":"95.438","MEAN_ANOMALY":"313.1912","EPHEMERIS_TYPE":"0","CENTER_NAME":"EARTH"},{"LAUNCH_DATE":"2022-05-06","MEAN_MOTION_DOT":"0.00000587","TLE_LINE2":"2 52467  53.2177 108.4109 0001568  55.5083 304.6058 15.08832617 28995","REV_AT_EPOCH":"2899","MEAN_MOTION_DDOT":"0.0000000000000","SEMIMAJOR_AXIS":"6917.903","EPOCH":"2022-11-11T19:34:36.098112","REF_FRAME":"TEME","CLASSIFICATION_TYPE":"U","OBJECT_TYPE":"PAYLOAD","OBJECT_ID":"2022-049S","ARG_OF_PERICENTER":"55.5083","SITE":"AFETR","APOAPSIS":"540.853","PERIAPSIS":"538.683","TIME_SYSTEM":"UTC","MEAN_MOTION":"15.08832617","BSTAR":"0.00005500700000","FILE":"3651775","GP_ID":"217493601","NORAD_CAT_ID":"52467","COUNTRY_CODE":"US","INCLINATION":"53.2177","DECAY_DATE":null,"ELEMENT_SET_NO":"999","PERIOD":"95.438","MEAN_ANOMALY":"304.6058","CENTER_NAME":"EARTH","EPHEMERIS_TYPE":"0","RCS_SIZE":"LARGE","RA_OF_ASC_NODE":"108.4109","ECCENTRICITY":"0.00015680","OBJECT_NAME":"STARLINK-3873","TLE_LINE1":"1 52467U 22049S   22315.81569558  .00000587  00000-0  55007-4 0  9992","MEAN_ELEMENT_THEORY":"SGP4"},{"REV_AT_EPOCH":"2899","TLE_LINE2":"2 52468  53.2169 108.4795 0001900  50.6222 309.4938 15.08833469 28995","MEAN_MOTION_DOT":"0.00001198","LAUNCH_DATE":"2022-05-06","APOAPSIS":"541.080","SITE":"AFETR","ARG_OF_PERICENTER":"50.6222","OBJECT_ID":"2022-049T","OBJECT_TYPE":"PAYLOAD","CLASSIFICATION_TYPE":"U","REF_FRAME":"TEME","EPOCH":"2022-11-11T19:13:23.228256","SEMIMAJOR_AXIS":"6917.900","MEAN_MOTION_DDOT":"0.0000000000000","INCLINATION":"53.2169","DECAY_DATE":null,"COUNTRY_CODE":"US","NORAD_CAT_ID":"52468","GP_ID":"217492381","BSTAR":"0.00009335600000","FILE":"3651775","PERIAPSIS":"538.451","MEAN_MOTION":"15.08833469","TIME_SYSTEM":"UTC","MEAN_ELEMENT_THEORY":"SGP4","TLE_LINE1":"1 52468U 22049T   22315.80096329  .00001198  00000-0  93356-4 0  9991","OBJECT_NAME":"STARLINK-3864","RA_OF_ASC_NODE":"108.4795","ECCENTRICITY":"0.00019000","RCS_SIZE":"LARGE","CENTER_NAME":"EARTH","EPHEMERIS_TYPE":"0","MEAN_ANOMALY":"309.4938","PERIOD":"95.438","ELEMENT_SET_NO":"999"},{"GP_ID":"217493128","NORAD_CAT_ID":"52469","DECAY_DATE":null,"INCLINATION":"53.2170","COUNTRY_CODE":"US","PERIAPSIS":"538.337","TIME_SYSTEM":"UTC","MEAN_MOTION":"15.08828063","BSTAR":"0.00007495300000","FILE":"3651775","RA_OF_ASC_NODE":"108.7417","ECCENTRICITY":"0.00020880","RCS_SIZE":"LARGE","MEAN_ELEMENT_THEORY":"SGP4","TLE_LINE1":"1 52469U 22049R   22315.74209090  .00000905  00000-0  74953-4 0  9993","OBJECT_NAME":"STARLINK-3828","PERIOD":"95.438","MEAN_ANOMALY":"326.0566","ELEMENT_SET_NO":"999","EPHEMERIS_TYPE":"0","CENTER_NAME":"EARTH","TLE_LINE2":"2 52469  53.2170 108.7417 0002088  34.0560 326.0566 15.08828063 28986","REV_AT_EPOCH":"2898","MEAN_MOTION_DOT":"0.00000905","LAUNCH_DATE":"2022-05-06","OBJECT_TYPE":"PAYLOAD","ARG_OF_PERICENTER":"34.0560","OBJECT_ID":"2022-049U","APOAPSIS":"541.226","SITE":"AFETR","EPOCH":"2022-11-11T17:48:36.653760","MEAN_MOTION_DDOT":"0.0000000000000","SEMIMAJOR_AXIS":"6917.917","CLASSIFICATION_TYPE":"U","REF_FRAME":"TEME"},{"EPHEMERIS_TYPE":"0","CENTER_NAME":"EARTH","MEAN_ANOMALY":"302.0727","PERIOD":"95.438","ELEMENT_SET_NO":"999","MEAN_ELEMENT_THEORY":"SGP4","TLE_LINE1":"1 52470U 22049V   22315.72736553 -.00001049  00000-0 -47846-4 0  9995","OBJECT_NAME":"STARLINK-3859","ECCENTRICITY":"0.00016950","RA_OF_ASC_NODE":"108.8137","RCS_SIZE":"LARGE","BSTAR":"-0.00004784600000","FILE":"3651775","MEAN_MOTION":"15.08834537","PERIAPSIS":"538.590","TIME_SYSTEM":"UTC","INCLINATION":"53.2178","DECAY_DATE":null,"COUNTRY_CODE":"US","NORAD_CAT_ID":"52470","GP_ID":"217493383","CLASSIFICATION_TYPE":"U","REF_FRAME":"TEME","EPOCH":"2022-11-11T17:27:24.381792","SEMIMAJOR_AXIS":"6917.897","MEAN_MOTION_DDOT":"0.0000000000000","APOAPSIS":"540.935","SITE":"AFETR","OBJECT_ID":"2022-049V","ARG_OF_PERICENTER":"58.0430","OBJECT_TYPE":"PAYLOAD","MEAN_MOTION_DOT":"-0.00001049","LAUNCH_DATE":"2022-05-06","REV_AT_EPOCH":"2898","TLE_LINE2":"2 52470  53.2178 108.8137 0001695  58.0430 302.0727 15.08834537 28987"}];
